NORAD_CAT_ID,OBJECT_NAME,OBJECT_TYPE,EPOCH,MEAN_MOTION,ECCENTRICITY,INCLINATION,RA_OF_ASC_NODE,ARG_OF_PERICENTER,MEAN_ANOMALY,BSTAR,MEAN_MOTION_DOT,MEAN_MOTION_DDOT,TLE_LINE0,TLE_LINE1,TLE_LINE2,SEMIMAJOR_AXIS,PERIOD,APOGEE,PERIGEE,DECAYED
53016.0,STARLINK-4283,PAYLOAD,2023-04-07 12:05:34,15.08842978,0.0001134,53.217,194.8997,80.2576,279.8544,8.6456e-05,1.088e-05,0.0,0 STARLINK-4283,1 53016U 22076AG  23097.50387232  .00001088  00000-0  86456-4 0  9993,2 53016  53.2170 194.8997 0001134  80.2576 279.8544 15.08842978 41870,6917.871,95.437,540.521,538.952,0.0
53016.0,STARLINK-4283,PAYLOAD,2023-04-07 15:16:20,15.08847999,0.0001172,53.2173,194.305,86.0185,274.0941,0.00015271,2.144e-05,0.0,0 STARLINK-4283,1 53016U 22076AG  23097.63634922  .00002144  00000-0  15271-3 0  9998,2 53016  53.2173 194.3050 0001172  86.0185 274.0941 15.08847999 42361,6917.856,95.437,540.532,538.91,0.0
53016.0,STARLINK-4283,PAYLOAD,2023-04-07 23:13:16,15.08837607,0.0001207,53.2172,192.8188,85.5478,274.5652,2.3262e-05,8.2e-07,0.0,0 STARLINK-4283,1 53016U 22076AG  23097.96755460  .00000082  00000-0  23262-4 0  9994,2 53016  53.2172 192.8188 0001207  85.5478 274.5652 15.08837607 42418,6917.888,95.438,540.588,538.918,0.0
53016.0,STARLINK-4283,PAYLOAD,2023-04-08 11:56:21,15.08838845,0.0001247,53.2172,190.4394,87.3337,272.7798,-4.81e-05,-1.053e-05,0.0,0 STARLINK-4283,1 53016U 22076AG  23098.49747486 -.00001053  00000-0 -48100-4 0  9991,2 53016  53.2172 190.4394 0001247  87.3337 272.7798 15.08838845 42022,6917.884,95.438,540.612,538.886,0.0
53016.0,STARLINK-4283,PAYLOAD,2023-04-09 10:11:46,15.08836837,0.0001187,53.2168,186.2756,86.7053,273.4075,0.00010728,1.42e-05,0.0,0 STARLINK-4283,1 53016U 22076AG  23099.42483798  .00001420  00000-0  10728-3 0  9998,2 53016  53.2168 186.2756 0001187  86.7053 273.4075 15.08836837 42635,6917.89,95.438,540.576,538.934,0.0
53016.0,STARLINK-4283,PAYLOAD,2023-04-09 18:08:41,15.08850363,0.000117,53.2162,184.7877,85.8665,274.2461,0.00016709,2.373e-05,0.0,0 STARLINK-4283,1 53016U 22076AG  23099.75603037  .00002373  00000-0  16709-3 0  9997,2 53016  53.2162 184.7877 0001170  85.8665 274.2461 15.08850363 42680,6917.849,95.437,540.523,538.904,0.0
53016.0,STARLINK-4283,PAYLOAD,2023-04-09 22:54:52,15.08813124,5.5e-05,53.217,183.8979,81.9335,278.1719,-0.00025671,-4.368e-05,0.0,0 STARLINK-4283,1 53016U 22076AG  23099.95476853 -.00004368  00000-0 -25671-3 0  9999,2 53016  53.2170 183.8979 0000550  81.9335 278.1719 15.08813124 42711,6917.963,95.439,540.208,539.447,0.0
53016.0,STARLINK-4283,PAYLOAD,2023-04-10 05:16:25,15.08811098,8.71e-05,53.2166,182.708,81.4184,278.6907,-0.00024184,-4.131e-05,0.0,0 STARLINK-4283,1 53016U 22076AG  23100.21973429 -.00004131  00000-0 -24184-3 0  9998,2 53016  53.2166 182.7080 0000871  81.4184 278.6907 15.08811098 42284,6917.969,95.439,540.436,539.231,0.0
53016.0,STARLINK-4283,PAYLOAD,2023-04-11 11:28:43,15.08869717,9.4e-05,53.215,177.0564,84.6409,275.469,0.0010877,0.00017079,0.0,0 STARLINK-4283,1 53016U 22076AG  23101.47828199  .00017079  00000-0  10877-2 0  9996,2 53016  53.2150 177.0564 0000940  84.6409 275.4690 15.08869717 42479,6917.79,95.436,540.305,539.004,0.0
53016.0,STARLINK-4283,PAYLOAD,2023-04-11 16:14:52,15.0888926,9.7e-05,53.2147,176.1642,79.7154,280.3947,0.0016554,0.00026192,0.0,0 STARLINK-4283,1 53016U 22076AG  23101.67699807  .00026192  00000-0  16554-2 0  9994,2 53016  53.2147 176.1642 0000970  79.7154 280.3947 15.08889260 42506,6917.73,95.434,540.266,538.924,0.0
53016.0,STARLINK-4283,PAYLOAD,2023-04-12 04:57:57,15.08866239,0.0001579,53.2145,173.7852,92.2212,267.8961,0.00091401,0.00014299,0.0,0 STARLINK-4283,1 53016U 22076AG  23102.20691633  .00014299  00000-0  91401-3 0  9993,2 53016  53.2145 173.7852 0001579  92.2212 267.8961 15.08866239 43059,6917.8,95.436,540.758,538.573,0.0
53016.0,STARLINK-4283,PAYLOAD,2023-04-12 09:44:06,15.08859466,0.0001117,53.2149,172.8927,115.1471,244.9637,0.001115,0.00017511,0.0,0 STARLINK-4283,1 53016U 22076AG  23102.40563395  .00017511  00000-0  11150-2 0  9990,2 53016  53.2149 172.8927 0001117 115.1471 244.9637 15.08859466 42617,6917.821,95.436,540.459,538.913,0.0
53016.0,STARLINK-4283,PAYLOAD,2023-04-12 16:05:39,15.08862029,0.0001054,53.2148,171.7034,112.7952,247.3151,0.0012397,0.00019509,0.0,0 STARLINK-4283,1 53016U 22076AG  23102.67059162  .00019509  00000-0  12397-2 0  9994,2 53016  53.2148 171.7034 0001054 112.7952 247.3151 15.08862029 43124,6917.813,95.436,540.407,538.949,0.0
53016.0,STARLINK-4283,PAYLOAD,2023-04-13 09:34:54,15.0884278,0.0001036,53.216,168.4335,80.3834,279.7275,0.0011961,0.00018801,0.0,0 STARLINK-4283,1 53016U 22076AG  23103.39923685  .00018801  00000-0  11961-2 0  9994,2 53016  53.2160 168.4335 0001036  80.3834 279.7275 15.08842780 42761,6917.872,95.437,540.454,539.02,0.0
53016.0,STARLINK-4283,PAYLOAD,2023-04-14 04:39:31,15.08841896,0.0001241,53.2155,164.864,91.3392,268.7742,0.00054602,8.413e-05,0.0,0 STARLINK-4283,1 53016U 22076AG  23104.19411935  .00008413  00000-0  54602-3 0  9991,2 53016  53.2155 164.8640 0001241  91.3392 268.7742 15.08841896 43353,6917.875,95.437,540.598,538.881,0.0
53016.0,STARLINK-4283,PAYLOAD,2023-04-14 09:25:41,15.08842946,0.0001171,53.2158,163.9727,87.0536,273.059,0.00036669,5.553e-05,0.0,0 STARLINK-4283,1 53016U 22076AG  23104.39283878  .00005553  00000-0  36669-3 0  9991,2 53016  53.2158 163.9727 0001171  87.0536 273.0590 15.08842946 42914,6917.871,95.437,540.546,538.926,0.0
53016.0,STARLINK-4283,PAYLOAD,2023-04-15 04:30:18,15.08839681,0.0001255,53.2161,160.4046,92.0302,268.0834,0.00012939,1.772e-05,0.0,0 STARLINK-4283,1 53016U 22076AG  23105.18771982  .00001772  00000-0  12939-3 0  9990,2 53016  53.2161 160.4046 0001255  92.0302 268.0834 15.08839681 43507,6917.881,95.438,540.615,538.878,0.0
53016.0,STARLINK-4283,PAYLOAD,2023-04-15 10:51:51,15.08844288,0.0001337,53.2169,159.2157,96.6875,263.4269,0.00019404,2.802e-05,0.0,0 STARLINK-4283,1 53016U 22076AG  23105.45267788  .00002802  00000-0  19404-3 0  9993,2 53016  53.2169 159.2157 0001337  96.6875 263.4269 15.08844288 43072,6917.867,95.437,540.657,538.807,0.0
53016.0,STARLINK-4283,PAYLOAD,2023-04-15 20:24:10,15.08842049,0.0001316,53.2166,157.4312,96.2361,263.8781,9.7392e-05,1.263e-05,0.0,0 STARLINK-4283,1 53016U 22076AG  23105.85011842  .00001263  00000-0  97392-4 0  9998,2 53016  53.2166 157.4312 0001316  96.2361 263.8781 15.08842049 43138,6917.874,95.437,540.65,538.829,0.0
53016.0,STARLINK-4283,PAYLOAD,2023-04-16 10:42:38,15.08842309,0.0001385,53.2173,154.7552,97.3351,262.7798,7.7979e-05,9.53e-06,0.0,0 STARLINK-4283,1 53016U 22076AG  23106.44627881  .00000953  00000-0  77979-4 0  9994,2 53016  53.2173 154.7552 0001385  97.3351 262.7798 15.08842309 43224,6917.873,95.437,540.696,538.78,0.0
53016.0,STARLINK-4283,PAYLOAD,2023-04-17 12:08:49,15.08842469,0.0001274,53.2167,149.9961,102.8238,257.2897,3.5924e-05,2.84e-06,0.0,0 STARLINK-4283,1 53016U 22076AG  23107.50612269  .00000284  00000-0  35924-4 0  9997,2 53016  53.2167 149.9961 0001274 102.8238 257.2897 15.08842469 43855,6917.873,95.437,540.619,538.857,0.0
53016.0,STARLINK-4283,PAYLOAD,2023-04-17 20:05:44,15.08847729,0.0001243,53.2167,148.5085,111.2296,248.8829,-6.2957e-05,-1.29e-05,0.0,0 STARLINK-4283,1 53016U 22076AG  23107.83732041 -.00001290  00000-0 -62957-4 0  9990,2 53016  53.2167 148.5085 0001243 111.2296 248.8829 15.08847729 43430,6917.857,95.437,540.582,538.862,0.0
53016.0,STARLINK-4283,PAYLOAD,2023-04-18 02:27:17,15.08832332,0.0001333,53.2167,147.319,94.1003,266.0141,0.00019302,2.785e-05,0.0,0 STARLINK-4283,1 53016U 22076AG  23108.10228639  .00002785  00000-0  19302-3 0  9997,2 53016  53.2167 147.3190 0001333  94.1003 266.0141 15.08832332 43948,6917.904,95.438,540.691,538.847,0.0
53016.0,STARLINK-4283,PAYLOAD,2023-04-18 08:48:49,15.08846238,0.0001314,53.2163,146.1296,91.8836,268.2307,0.00010193,1.335e-05,0.0,0 STARLINK-4283,1 53016U 22076AG  23108.36723950  .00001335  00000-0  10193-3 0  9990,2 53016  53.2163 146.1296 0001314  91.8836 268.2307 15.08846238 43516,6917.861,95.437,540.635,538.817,0.0
53016.0,STARLINK-4283,PAYLOAD,2023-04-18 19:56:32,15.0882761,0.0001359,53.2158,144.0495,85.0795,275.0353,0.00026861,3.988e-05,0.0,0 STARLINK-4283,1 53016U 22076AG  23108.83092967  .00003988  00000-0  26861-3 0  9994,2 53016  53.2158 144.0495 0001359  85.0795 275.0353 15.08827610 44056,6917.918,95.438,540.723,538.843,0.0
53016.0,STARLINK-4283,PAYLOAD,2023-04-19 08:39:36,15.08851986,0.0001362,53.2157,141.6722,72.2762,287.8378,0.000137,1.894e-05,0.0,0 STARLINK-4283,1 53016U 22076AG  23109.36083498  .00001894  00000-0  13700-3 0  9994,2 53016  53.2157 141.6722 0001362  72.2762 287.8378 15.08851986 43664,6917.844,95.437,540.651,538.767,0.0
53016.0,STARLINK-4283,PAYLOAD,2023-04-20 11:41:10,15.08837548,0.000144,53.2169,136.614,102.4985,257.6168,-4.291e-05,-9.71e-06,0.0,0 STARLINK-4283,1 53016U 22076AG  23110.48692603 -.00000971  00000-0 -42910-4 0  9996,2 53016  53.2169 136.6140 0001440 102.4985 257.6168 15.08837548 43834,6917.888,95.438,540.749,538.757,0.0
53016.0,STARLINK-4283,PAYLOAD,2023-04-21 01:59:39,15.08830979,0.0001191,53.2164,133.9372,95.3863,264.7265,-2.4077e-05,-6.71e-06,0.0,0 STARLINK-4283,1 53016U 22076AG  23111.08309118 -.00000671  00000-0 -24077-4 0  9990,2 53016  53.2164 133.9372 0001191  95.3863 264.7265 15.08830979 44394,6917.908,95.438,540.597,538.949,0.0
53016.0,STARLINK-4283,PAYLOAD,2023-04-21 11:31:57,15.0885783,0.0001509,53.2162,132.1522,108.6718,251.4438,-0.00036638,-6.117e-05,0.0,0 STARLINK-4283,1 53016U 22076AG  23111.48052316 -.00006117  00000-0 -36638-3 0  9995,2 53016  53.2162 132.1522 0001509 108.6718 251.4438 15.08857830 43984,6917.826,95.436,540.735,538.647,0.0
53016.0,STARLINK-4283,PAYLOAD,2023-04-21 17:53:30,15.08835434,0.0001381,53.2166,130.9644,98.4611,261.6538,3.5505e-05,2.77e-06,0.0,0 STARLINK-4283,1 53016U 22076AG  23111.74548835  .00000277  00000-0  35505-4 0  9992,2 53016  53.2166 130.9644 0001381  98.4611 261.6538 15.08835434 44492,6917.894,95.438,540.715,538.804,0.0
